[{"OBJECT_NAME":"STARLINK-2338","OBJECT_ID":"2021-018G","EPOCH":"2026-03-09T17:13:02.131392","MEAN_MOTION":15.06405037,"ECCENTRICITY":0.00014277,"INCLINATION":53.0568,"RA_OF_ASC_NODE":231.4941,"ARG_OF_PERICENTER":85.5695,"MEAN_ANOMALY":274.5457,"EPHEMERIS_TYPE":0,"CLASSIFICATION_TYPE":"U","NORAD_CAT_ID":47793,"ELEMENT_SET_NO":999,"REV_AT_EPOCH":27687,"BSTAR":-2.4795202e-5,"MEAN_MOTION_DOT":-6.51e-6,"MEAN_MOTION_DDOT":0},{"OBJECT_NAME":"ICEYE-X65","OBJECT_ID":"2025-248H","EPOCH":"2026-03-09T01:43:36.801408","MEAN_MOTION":15.08278623,"ECCENTRICITY":0.0005141,"INCLINATION":45.3996,"RA_OF_ASC_NODE":300.9889,"ARG_OF_PERICENTER":200.5324,"MEAN_ANOMALY":159.5352,"EPHEMERIS_TYPE":0,"CLASSIFICATION_TYPE":"U","NORAD_CAT_ID":66300,"ELEMENT_SET_NO":999,"REV_AT_EPOCH":2040,"BSTAR":0.00023069723,"MEAN_MOTION_DOT":3.385e-5,"MEAN_MOTION_DDOT":0}]
