STARLINK-2338           
1 47793U 21018G   26068.71738578 -.00000651  00000+0 -24795-4 0  9994
2 47793  53.0568 231.4941 0001428  85.5695 274.5457 15.06405037276871
ICEYE-X65               
1 66300U 25248H   26068.07195372  .00003385  00000+0  23070-3 0  9995
2 66300  45.3996 300.9889 0005141 200.5324 159.5352 15.08278623 20405
